#dP2021  6 23  0  0  0.00000000      96 __u+U ITR00 FIT  IAC
## 2163 259200.00000000   900.00000000 59388 0.0000000000000
+  116   C06C07C08C09C10C11C12C13C14C16C19C20C21C22C23C24C25
+        C26C27C28C29C30C32C33C34C35C36C37C38C39C40C41C42C43
+        C44C45C46E01E02E03E04E05E07E08E09E11E12E13E14E15E18
+        E19E21E24E25E26E27E30E31E33E36G01G02G03G04G05G06G07
+        G08G09G10G12G13G14G15G16G17G18G19G20G21G22G23G24G25
+        G26G27G28G29G30G31G32J01J02J03R01R02R03R04R05R07R08
+        R09R11R12R13R14R15R16R17R18R19R20R21R22R24  0  0  0
++         9 11  7  6 10  8  8  8  8  8  7  7  6  6  7  7  8
++         7  8  7  8  7  7  8  7  8  7  7  6  8  9  7  7  7
++         8  6  7  7  7  7  7  6  7  5  6  6  7  7  6  6  6
++         6  6  5  7  5  6  6  7  6  7  6  7  8  6  6  6  8
++         5  6  8  6  6  7  6  6  7  6  6  6  6  7  7  6  5
++         6  7  7  6  7  7  6  8  9  9  7  6  7  6  6  6  6
++         9  7  7  7  7  7  7  6  6  8  8  6  8  5  0  0  0
%c M  cc GPS ccc cccc cccc cccc cccc ccccc ccccc ccccc ccccc
%c cc cc ccc ccc cccc cccc cccc cccc ccccc ccccc ccccc ccccc
%f  0.0000000  0.000000000  0.00000000000  0.000000000000000
%f  0.0000000  0.000000000  0.00000000000  0.000000000000000
%i    0    0    0    0      0      0      0      0         0
%i    0    0    0    0      0      0      0      0         0
/* INFORMATION & ANALYSIS CENTER (IAC)      ULTRA-RAPID DATA
/* S/V CLOCKS ARE ALIGNED TO GNSS TIME                      
/* G:C1WC2W R:C1PC2P E:C1XC5X C:C2IC6I J:C1CC2S             
/* PCV:IGS14_2148 OL/AL:FES2004  NONE     YN ORB:CoN CLK:CoN
*  2021 06 23 13 45  0.00000000
PC06  -7056.789563  30626.797462  28820.251703    537.969354
PC07 -20697.215988  24109.468398 -27693.892945     42.869433
PC08 -19505.811721  37081.295521   2529.509108   -896.763065
PC09   4409.052811  38245.238086  18009.215618    426.619715
PC10  -4776.727680  26563.902725 -32212.787056    -26.593086
PC11  11290.164947 -11679.802125  22749.941476    416.651959
PC12  17780.668850   8025.015654  19972.024967    834.528859
PC13 -10964.930942  38277.399062  13586.791857    310.646235
PC14  21846.744970  -8398.886486 -15123.013282    872.923438
PC16  -4274.393829  31855.255914  27533.706464   -917.419585
PC19 -13026.328817  13213.848351  20879.035402    883.119929
PC20 -26377.196917   3337.338657   8553.678135   -866.846087
PC21  24559.130312   9126.905889   9588.440783   -935.145248
PC22   8268.704071  15765.276307  21487.357607   -949.266852
PC23    720.406674 -21897.719984  17291.946877   -945.355249
PC24  21040.955464 -10405.522427 -15107.690248   -906.159605
PC25  14570.904243 -23709.536987   2203.485588   -896.600857
PC26  14927.295212   6774.516013 -22590.674801    888.631997
PC27 -17476.505518 -17042.749976 -13532.441967    552.981193
PC28  -8543.248108 -26318.044512   3648.590868    -58.922102
PC29  -4636.779569  20280.617668 -18612.002454    409.999425
PC30 -16269.016099   2189.454390 -22574.116044    471.662371
PC32 -24660.181802  -8920.947554  -9545.468940   -924.431557
PC33  13001.485472 -13270.697527 -20807.246045   -938.026141
PC34  16017.360592  -2955.744525  22647.018579   -643.921565
PC35   9194.738279  26061.811673  -4008.958567   -219.855905
PC36 -15359.609108  23228.450645  -1808.889898   -728.691089
PC37 -14155.188720  -8055.304198  22681.803985   -871.754904
PC38 -17745.832645  37945.145445   4017.971041    157.123480
PC39   -942.947704  32688.319766  26710.531034     31.947140
PC40 -11880.802580  21238.924601 -34430.778366    173.767164
PC41  -8009.179576 -15785.494274 -21522.149636   -950.544870
PC42  26631.946613  -2826.009070  -7759.681611   -914.702931
PC43   5212.901766 -19904.048590  18829.734534   -789.550460
PC44  18064.075985  16640.389216  13265.873588    254.065810
PC45   -640.099511  21770.533435 -17428.258780    474.878362
PC46 -20987.675642  11402.503770  14417.152351    211.086970
PE01 -24614.628013   -157.364130  16443.689864  -1135.350213
PE02  24685.972943     43.598974 -16340.581019    228.095449
PE03  26421.489890  10790.443707  -7816.252330   -445.085085
PE04 -19514.395975   5446.356437  21591.877216   -798.524585
PE05  17920.388739  20952.803674  10771.937548   -270.682379
PE07    902.571858 -18785.821761 -22848.947575   -553.322047
PE08  19159.969163  -5712.220365 -21815.775267   5981.425810
PE09   -590.111901  18741.990244  22907.640084   5623.961870
PE11  -4768.496849  28798.871260  -4971.822721   5813.521061
PE12 -14517.082296  15035.448507 -20975.181699   5145.831133
PE13   4911.920273 -28685.114877   5385.393707    418.117230
PE14   -669.099074 -19680.244777  15526.072023  -1476.117094
PE15  14388.310754 -15104.320653  20996.948039    807.251234
PE18  -9522.425506  18556.718958 -23541.261260  -1617.050664
PE19 -26218.478181 -12480.093771   5758.315874    309.449939
PE21  -9576.317977 -13646.927522  24460.420934   -672.303468
PE24 -12524.282901  19819.835393 -18067.113881   -970.297590
PE25   9360.268117  13761.941686 -24470.241504   -537.817802
PE26  -7897.436460 -24854.120544 -14009.084998   1660.000736
PE27  11618.224808 -19847.284765  18643.040599    -60.509905
PE30  26256.570137 -13646.485650    912.873787   2840.355243
PE31 -25834.747239  14325.086658  -1890.630386   -482.515566
PE33 -15372.762038  -7326.627863 -24212.071801   -468.732214
PE36   7427.012437  25355.449651  13350.901959   -224.879958
PG01  13537.732184 -18625.646716  12659.131643    649.612023
PG02 -14089.847655  -5222.535422 -21248.585762   -614.531960
PG03  21608.648474 -12548.172357  -8919.426300   -200.140312
PG04  11640.760767  -9853.794834 -21738.408763   -200.683888
PG05 -25804.986818   5144.588686  -4448.864862    -45.808464
PG06  -8411.201867 -16998.660839 -18515.933530     30.574865
PG07   6046.125346 -25578.554292    751.342737    185.482158
PG08  18736.549805   -391.029777  18926.251143    -26.185966
PG09    656.035537 -18212.955092 -19373.645848   -352.486437
PG10   7017.646914  13569.665401  21863.541615   -148.089241
PG12 -22978.307451  10532.194209  -8176.747831    -58.953780
PG13 -20126.918328  -8929.062251  14820.199611    148.585424
PG14  -6411.208352 -14091.775984  21578.136316     63.242180
PG15 -18857.456791   2805.632113  18259.273202   -140.396847
PG16  25189.729139   1565.368993  -9233.394492   -345.878025
PG17 -11386.645949 -22087.859350   9794.176668    462.969534
PG18  -4620.731305  25888.319361   3422.719297    345.263260
PG19 -17048.548943 -20456.450331    101.860606     17.153495
PG20 -24561.515631   4084.212717  -8776.777926    520.880618
PG21  15480.735060 -11106.189908  18999.024769    126.887138
PG22  24754.121441  -9308.372200    707.598811   -581.199046
PG23  -5973.294112  16399.961464  19982.806727     93.503785
PG24 -14696.805001  14543.346272  16199.933820    145.406079
PG25 -13136.134623  15990.015221 -16757.923931    161.068051
PG26  19135.345975   6839.862619 -17297.970374    101.996205
PG27  21770.379220  10056.297265  11629.377140   -151.812771
PG28 -12354.770070 -12026.378977  20701.260475    549.805129
PG29  -2656.822596  17139.831411 -20148.501122   -368.871370
PG30  -2885.967561 -23318.922695  12217.616128   -442.485174
PG31  10355.893881  14527.505148 -19609.038259   -124.699122
PG32  14795.614705  21023.686123   7137.850740     17.362349
PJ01 -29341.295533  21037.344886  26850.146882   -401.332094
PJ02 -35931.649585  21366.427103  -1229.620306     -0.386729
PJ03 -18787.389186  25616.288605 -23162.519303     -8.918343
PR01  17535.391935  11874.994278  14211.257464     81.300200
PR02  24434.417370   4483.351181  -5876.001164    483.435581
PR03  15170.737088  -5323.788017 -19774.292460     38.217294
PR04  -2594.279532 -11758.249971 -22455.614124     92.595718
PR05 -18783.387536 -11794.619136 -12566.343884     74.083994
PR07 -14495.325068   5727.006454  20219.666514    -42.256825
PR08   2646.217981  11917.106441  22458.164012    -59.651368
PR09 -18404.700098   6710.113327  16400.099028     -0.644734
PR11  -8351.222327  18457.971182 -15495.906101    -14.663688
PR12   7211.466582   8261.705928 -23001.184642    239.551800
PR13  17962.517454  -6232.959155 -17014.451934    -56.696732
PR14  18469.682125 -17576.429756   -299.204403     65.672987
PR15   8090.816834 -18239.621274  15910.908999    103.088588
PR16  -8287.498498  -7464.791347  22920.037089    -16.796213
PR17   6400.707374 -13635.638413  20597.929619    435.099247
PR18  -1923.395756 -24157.425576   7886.986182     81.023516
PR19  -8376.338930 -22628.601984  -8289.342358   -148.859884
PR20 -11220.639084  -5937.252288 -22116.929699    -51.343031
PR21  -5859.455216  14661.204981 -20032.568644   -218.675196
PR22   2345.838854  24505.129481  -6888.048266   -119.130319
PR24  11699.834537   4907.157429  22135.261395     47.666614
EOF
